[{"icaoId":"KBWI","receiptTime":"2025-09-20T20:58:17.834Z","obsTime":1758401640,"reportTime":"2025-09-20T21:00:00.000Z","temp":23.3,"dewp":16.1,"wdir":90,"wspd":7,"visib":"10+","altim":1022.1,"slp":1022,"qcField":4,"presTend":-0.5,"metarType":"METAR","rawOb":"METAR KBWI 202054Z 09007KT 10SM FEW027 SCT060 BKN070 BKN250 23/16 A3018 RMK AO2 SLP220 T02330161 56005","lat":39.1733,"lon":-76.684,"elev":42,"name":"Baltimore-Washington Intl, MD, US","cover":"BKN","clouds":[{"cover":"FEW","base":2700},{"cover":"SCT","base":6000},{"cover":"BKN","base":7000},{"cover":"BKN","base":25000}],"fltCat":"VFR"}]