[{"icaoId":"KDCA","receiptTime":"2025-09-20T20:56:40.750Z","obsTime":1758401520,"reportTime":"2025-09-20T21:00:00.000Z","temp":23.3,"dewp":18.3,"wdir":70,"wspd":12,"visib":"10+","altim":1021.8,"slp":1021.7,"qcField":4,"presTend":-0.7,"metarType":"METAR","rawOb":"METAR KDCA 202052Z 07012KT 10SM SCT022 BKN095 BKN250 23/18 A3017 RMK AO2 SLP217 T02330183 56007","lat":38.8472,"lon":-77.0345,"elev":4,"name":"Washington/Reagan-National Arpt, VA, US","cover":"BKN","clouds":[{"cover":"SCT","base":2200},{"cover":"BKN","base":9500},{"cover":"BKN","base":25000}],"fltCat":"VFR"}]