[{"icaoId":"KIAD","receiptTime":"2025-09-20T20:56:40.844Z","obsTime":1758401520,"reportTime":"2025-09-20T21:00:00.000Z","temp":24.4,"dewp":16.7,"wdir":80,"wspd":10,"wgst":15,"visib":"10+","altim":1021.8,"slp":1021.4,"qcField":4,"presTend":-0.5,"metarType":"METAR","rawOb":"METAR KIAD 202052Z 08010G15KT 10SM FEW050 BKN075 BKN250 24/17 A3017 RMK AO2 SLP214 T02440167 57005","lat":38.9348,"lon":-77.4473,"elev":90,"name":"Washington/Dulles Intl, VA, US","cover":"BKN","clouds":[{"cover":"FEW","base":5000},{"cover":"BKN","base":7500},{"cover":"BKN","base":25000}],"fltCat":"VFR"}]