[{"icaoId":"KPHL","receiptTime":"2025-09-20T21:02:12.444Z","obsTime":1758401640,"reportTime":"2025-09-20T21:00:00.000Z","temp":25,"dewp":14.4,"wdir":80,"wspd":11,"visib":"10+","altim":1023.1,"slp":1023,"qcField":12,"metarType":"METAR","rawOb":"METAR KPHL 202054Z 08011KT 10SM SCT044 SCT070 25/14 A3021 RMK AO2 SLP230 T02500144 55000 $","lat":39.8733,"lon":-75.2268,"elev":2,"name":"Philadelphia Intl, PA, US","cover":"SCT","clouds":[{"cover":"SCT","base":4400},{"cover":"SCT","base":7000}],"fltCat":"VFR"}]